OBJECT C                
1 57582U 23117C   25178.16477532  .00006023  00000+0  23520-3 0  9994
2 57582  97.4447 253.0368 0010207  67.5162 292.7156 15.26222388104194
